{
  "type": "FeatureCollection",
  "features": [
    {
      "type": "Feature",
      "properties": {
        "norad_id": 41877,
        "name": "RESOURCESAT-2A",
        "group": "resource",
        "lat": -67.40053614879311,
        "lon": -149.6617350057097,
        "alt_km": 826.4570651517724,
        "timestamp": "2025-12-08T05:48:08.705063+00:00",
        "meta_object_name": "RESOURCESAT-2A",
        "meta_object_id": "2016-074A",
        "meta_epoch": "2025-12-07T21:52:39.079488",
        "meta_mean_motion": 14.21596266,
        "meta_eccentricity": 0.00011302,
        "meta_inclination": 98.7764,
        "meta_ra_of_asc_node": 51.7957,
        "meta_arg_of_pericenter": 277.3553,
        "meta_mean_anomaly": 82.7496,
        "meta_ephemeris_type": 0,
        "meta_classification_type": "U",
        "meta_norad_cat_id": 41877,
        "meta_element_set_no": 999,
        "meta_rev_at_epoch": 46712,
        "meta_bstar": 0.00015200705,
        "meta_mean_motion_dot": 2.89e-06,
        "meta_mean_motion_ddot": 0,
        "tle_line1": "1 41877U 16074A   25341.91156342  .00000289  00000+0  15201-3 0  9991",
        "tle_line2": "2 41877  98.7764  51.7957 0001130 277.3553  82.7496 14.21596266467129"
      },
      "geometry": {
        "type": "Point",
        "coordinates": [
          -149.6617350057097,
          -67.40053614879311
        ]
      }
    },
    {
      "type": "Feature",
      "properties": {
        "norad_id": 41948,
        "name": "CARTOSAT-2D",
        "group": "resource",
        "lat": 61.7589081009765,
        "lon": -126.11300739553727,
        "alt_km": 500.8164941571267,
        "timestamp": "2025-12-08T05:48:08.705073+00:00",
        "meta_object_name": "CARTOSAT-2D",
        "meta_object_id": "2017-008A",
        "meta_epoch": "2025-12-07T22:57:52.717824",
        "meta_mean_motion": 15.19185636,
        "meta_eccentricity": 0.00042361,
        "meta_inclination": 97.4392,
        "meta_ra_of_asc_node": 39.5269,
        "meta_arg_of_pericenter": 177.5259,
        "meta_mean_anomaly": 182.5998,
        "meta_ephemeris_type": 0,
        "meta_classification_type": "U",
        "meta_norad_cat_id": 41948,
        "meta_element_set_no": 999,
        "meta_rev_at_epoch": 48854,
        "meta_bstar": 0.00032747061,
        "meta_mean_motion_dot": 6.824e-05,
        "meta_mean_motion_ddot": 0,
        "tle_line1": "1 41948U 17008A   25341.95686016  .00006824  00000+0  32747-3 0  9993",
        "tle_line2": "2 41948  97.4392  39.5269 0004236 177.5259 182.5998 15.19185636488543"
      },
      "geometry": {
        "type": "Point",
        "coordinates": [
          -126.11300739553727,
          61.7589081009765
        ]
      }
    },
    {
      "type": "Feature",
      "properties": {
        "norad_id": 42063,
        "name": "SENTINEL-2B",
        "group": "resource",
        "lat": 67.03542419327422,
        "lon": 33.89833383730465,
        "alt_km": 781.7469317217856,
        "timestamp": "2025-12-08T05:48:08.705083+00:00",
        "meta_object_name": "SENTINEL-2B",
        "meta_object_id": "2017-013A",
        "meta_epoch": "2025-12-07T22:46:10.627104",
        "meta_mean_motion": 14.3081305,
        "meta_eccentricity": 0.00011275,
        "meta_inclination": 98.5723,
        "meta_ra_of_asc_node": 54.462,
        "meta_arg_of_pericenter": 97.8018,
        "meta_mean_anomaly": 262.3293,
        "meta_ephemeris_type": 0,
        "meta_classification_type": "U",
        "meta_norad_cat_id": 42063,
        "meta_element_set_no": 999,
        "meta_rev_at_epoch": 45729,
        "meta_bstar": 0.00012409545,
        "meta_mean_motion_dot": 2.82e-06,
        "meta_mean_motion_ddot": 0,
        "tle_line1": "1 42063U 17013A   25341.94873411  .00000282  00000+0  12410-3 0  9991",
        "tle_line2": "2 42063  98.5723  54.4620 0001127  97.8018 262.3293 14.30813050457295"
      },
      "geometry": {
        "type": "Point",
        "coordinates": [
          33.89833383730465,
          67.03542419327422
        ]
      }
    },
    {
      "type": "Feature",
      "properties": {
        "norad_id": 42767,
        "name": "CARTOSAT-2E",
        "group": "resource",
        "lat": 27.353661757153485,
        "lon": 36.00221475553792,
        "alt_km": 508.0567158538033,
        "timestamp": "2025-12-08T05:48:08.705093+00:00",
        "meta_object_name": "CARTOSAT-2E",
        "meta_object_id": "2017-036C",
        "meta_epoch": "2025-12-07T21:46:39.323712",
        "meta_mean_motion": 15.19248356,
        "meta_eccentricity": 0.00023393,
        "meta_inclination": 97.4559,
        "meta_ra_of_asc_node": 39.5569,
        "meta_arg_of_pericenter": 261.2352,
        "meta_mean_anomaly": 98.8618,
        "meta_ephemeris_type": 0,
        "meta_classification_type": "U",
        "meta_norad_cat_id": 42767,
        "meta_element_set_no": 999,
        "meta_rev_at_epoch": 46910,
        "meta_bstar": 0.00034929265,
        "meta_mean_motion_dot": 7.296e-05,
        "meta_mean_motion_ddot": 0,
        "tle_line1": "1 42767U 17036C   25341.90739958  .00007296  00000+0  34929-3 0  9991",
        "tle_line2": "2 42767  97.4559  39.5569 0002339 261.2352  98.8618 15.19248356469106"
      },
      "geometry": {
        "type": "Point",
        "coordinates": [
          36.00221475553792,
          27.353661757153485
        ]
      }
    },
    {
      "type": "Feature",
      "properties": {
        "norad_id": 42920,
        "name": "FORMOSAT-5",
        "group": "resource",
        "lat": 73.37572048835959,
        "lon": -94.29305686666717,
        "alt_km": 721.7554892328999,
        "timestamp": "2025-12-08T05:48:08.705105+00:00",
        "meta_object_name": "FORMOSAT-5",
        "meta_object_id": "2017-049A",
        "meta_epoch": "2025-12-07T22:42:09.312768",
        "meta_mean_motion": 14.51000744,
        "meta_eccentricity": 0.00100843,
        "meta_inclination": 98.2457,
        "meta_ra_of_asc_node": 56.36,
        "meta_arg_of_pericenter": 311.7349,
        "meta_mean_anomaly": 48.2983,
        "meta_ephemeris_type": 0,
        "meta_classification_type": "U",
        "meta_norad_cat_id": 42920,
        "meta_element_set_no": 999,
        "meta_rev_at_epoch": 43894,
        "meta_bstar": 0.00012358652,
        "meta_mean_motion_dot": 4.45e-06,
        "meta_mean_motion_ddot": 0,
        "tle_line1": "1 42920U 17049A   25341.94594112  .00000445  00000+0  12359-3 0  9993",
        "tle_line2": "2 42920  98.2457  56.3600 0010084 311.7349  48.2983 14.51000744438943"
      },
      "geometry": {
        "type": "Point",
        "coordinates": [
          -94.29305686666717,
          73.37572048835959
        ]
      }
    },
    {
      "type": "Feature",
      "properties": {
        "norad_id": 42969,
        "name": "SENTINEL-5P",
        "group": "resource",
        "lat": -69.28105378022502,
        "lon": -55.02406657442992,
        "alt_km": 834.868330173098,
        "timestamp": "2025-12-08T05:48:08.705116+00:00",
        "meta_object_name": "SENTINEL-5P",
        "meta_object_id": "2017-064A",
        "meta_epoch": "2025-12-07T19:59:13.864704",
        "meta_mean_motion": 14.19515645,
        "meta_eccentricity": 9.594e-05,
        "meta_inclination": 98.7778,
        "meta_ra_of_asc_node": 280.4607,
        "meta_arg_of_pericenter": 86.806,
        "meta_mean_anomaly": 273.3226,
        "meta_ephemeris_type": 0,
        "meta_classification_type": "U",
        "meta_norad_cat_id": 42969,
        "meta_element_set_no": 999,
        "meta_rev_at_epoch": 42241,
        "meta_bstar": 0.00010747634,
        "meta_mean_motion_dot": 1.82e-06,
        "meta_mean_motion_ddot": 0,
        "tle_line1": "1 42969U 17064A   25341.83279936  .00000182  00000+0  10748-3 0  9993",
        "tle_line2": "2 42969  98.7778 280.4607 0000959  86.8060 273.3226 14.19515645422415"
      },
      "geometry": {
        "type": "Point",
        "coordinates": [
          -55.02406657442992,
          -69.28105378022502
        ]
      }
    },
    {
      "type": "Feature",
      "properties": {
        "norad_id": 42987,
        "name": "SKYSAT-C11",
        "group": "resource",
        "lat": 42.668684600641384,
        "lon": -53.48225494511598,
        "alt_km": 421.047733965891,
        "timestamp": "2025-12-08T05:48:08.705145+00:00",
        "meta_object_name": "SKYSAT-C11",
        "meta_object_id": "2017-068A",
        "meta_epoch": "2025-12-07T23:00:15.061824",
        "meta_mean_motion": 15.47149925,
        "meta_eccentricity": 9.374e-05,
        "meta_inclination": 97.4145,
        "meta_ra_of_asc_node": 119.3333,
        "meta_arg_of_pericenter": 107.5092,
        "meta_mean_anomaly": 252.626,
        "meta_ephemeris_type": 0,
        "meta_classification_type": "U",
        "meta_norad_cat_id": 42987,
        "meta_element_set_no": 999,
        "meta_rev_at_epoch": 45357,
        "meta_bstar": 0.00050144017,
        "meta_mean_motion_dot": 0.000254,
        "meta_mean_motion_ddot": 0,
        "tle_line1": "1 42987U 17068A   25341.95850766  .00025400  00000+0  50144-3 0  9990",
        "tle_line2": "2 42987  97.4145 119.3333 0000937 107.5092 252.6260 15.47149925453572"
      },
      "geometry": {
        "type": "Point",
        "coordinates": [
          -53.48225494511598,
          42.668684600641384
        ]
      }
    }
  ]
}